*******************************************************************************
Ephemeris / WWW_USER Thu May 23 08:24:26 2024 Pasadena, USA      / Horizons    
*******************************************************************************
Target body name: (2017 SN16)                     {source: JPL#20}
Center body name: Earth (399)                     {source: DE441}
Center-site name: Gemini South Obs., Cerro Pachon
*******************************************************************************
Start time      : A.D. 2018-Oct-02 22:53:00.0000 UT      
Stop  time      : A.D. 2018-Oct-03 10:10:00.0000 UT      
Step-size       : 1 minutes
*******************************************************************************
Target pole/equ : undefined
Target radii    : undefined                                                    
Center geodetic : 289.2634, -30.2406227, 2.71233  {E-lon(deg),Lat(deg),Alt(km)}
Center cylindric: 289.2634,5517.21435,-3194.81213 {E-lon(deg),Dxy(km),Dz(km)}
Center pole/equ : ITRF93                          {East-longitude positive}
Center radii    : 6378.137, 6378.137, 6356.752 km {Equator_a, b, pole_c}       
Target primary  : Sun
Vis. interferer : MOON (R_eq= 1737.400) km        {source: DE441}
Rel. light bend : Sun                             {source: DE441}
Rel. lght bnd GM: 1.3271E+11 km^3/s^2                                          
Small-body perts: Yes                             {source: SB441-N16}
Atmos refraction: NO (AIRLESS)
RA format       : HMS
Time format     : CAL 
Calendar mode   : Mixed Julian/Gregorian
RTS-only print  : NO       
EOP file        : eop.240522.p240815                                           
EOP coverage    : DATA-BASED 1962-JAN-20 TO 2024-MAY-22. PREDICTS-> 2024-AUG-14
Units conversion: 1 au= 149597870.700 km, c= 299792.458 km/s, 1 day= 86400.0 s 
Table cut-offs 1: Elevation (-90.0deg=NO ),Airmass (>38.000=NO), Daylight (YES)
Table cut-offs 2: Solar elongation (  0.0,180.0=NO ),Local Hour Angle( 0.0=NO )
Table cut-offs 3: RA/DEC angular rate (     0.0=NO )                           
*******************************************************************************
Initial IAU76/J2000 heliocentric ecliptic osculating elements (au, days, deg.):
  EPOCH=  2458305.5 ! 2018-Jul-06.00 (TDB)         Residual RMS= .23751        
   EC= .1454884975659386   QR= .8682464985612274   TP= 2458145.5722438502      
   OM= 2.759719470837934   W=  137.1017088998531   IN= 13.38264682844635       
  Equivalent ICRF heliocentric cartesian coordinates (au, au/d):
   X= 5.756755401261899E-01  Y=-7.953424559592890E-01  Z=-6.031561894536019E-01
  VX= 1.332076113263395E-02 VY= 5.454663564585547E-03 VZ= 3.896229736425836E-03
Asteroid physical parameters (km, seconds, rotational period in hours):        
   GM= n.a.                RAD= n.a.               ROTPER= n.a.                
   H= 23.34                G= .150                 B-V= n.a.                   
                           ALBEDO= n.a.            STYP= n.a.                  
*******************************************************************************
 Date__(UT)__HR:MN     R.A._________(ICRF)_________DEC
******************************************************
$$SOE
 2018-Oct-03 02:59     22 27 47.729356 -01 09 51.77547
 2018-Oct-03 03:00     22 27 47.456213 -01 09 48.87229
 2018-Oct-03 03:01     22 27 47.183088 -01 09 45.96912
 2018-Oct-03 03:02     22 27 46.909981 -01 09 43.06594
 2018-Oct-03 03:03     22 27 46.636892 -01 09 40.16278
 2018-Oct-03 03:04     22 27 46.363821 -01 09 37.25961
 2018-Oct-03 03:05     22 27 46.090770 -01 09 34.35645
 2018-Oct-03 03:06     22 27 45.817738 -01 09 31.45329
 2018-Oct-03 03:07     22 27 45.544725 -01 09 28.55013
 2018-Oct-03 03:08     22 27 45.271733 -01 09 25.64697
 2018-Oct-03 03:09     22 27 44.998760 -01 09 22.74382
 2018-Oct-03 03:10     22 27 44.725809 -01 09 19.84068
 2018-Oct-03 03:11     22 27 44.452878 -01 09 16.93753
 2018-Oct-03 03:12     22 27 44.179969 -01 09 14.03439
 2018-Oct-03 03:13     22 27 43.907082 -01 09 11.13125
 2018-Oct-03 03:14     22 27 43.634217 -01 09 08.22812
 2018-Oct-03 03:15     22 27 43.361374 -01 09 05.32499
 2018-Oct-03 03:16     22 27 43.088554 -01 09 02.42186
 2018-Oct-03 03:17     22 27 42.815757 -01 08 59.51874
 2018-Oct-03 03:18     22 27 42.542984 -01 08 56.61562
 2018-Oct-03 03:19     22 27 42.270234 -01 08 53.71250
 2018-Oct-03 03:20     22 27 41.997509 -01 08 50.80939
 2018-Oct-03 03:21     22 27 41.724808 -01 08 47.90628
 2018-Oct-03 03:22     22 27 41.452132 -01 08 45.00318
 2018-Oct-03 03:23     22 27 41.179481 -01 08 42.10008
 2018-Oct-03 03:24     22 27 40.906855 -01 08 39.19699
 2018-Oct-03 03:25     22 27 40.634256 -01 08 36.29390
 2018-Oct-03 03:26     22 27 40.361683 -01 08 33.39081
 2018-Oct-03 03:27     22 27 40.089136 -01 08 30.48773
 2018-Oct-03 03:28     22 27 39.816617 -01 08 27.58466
 2018-Oct-03 03:29     22 27 39.544124 -01 08 24.68159
 2018-Oct-03 03:30     22 27 39.271659 -01 08 21.77852
 2018-Oct-03 03:31     22 27 38.999223 -01 08 18.87546
 2018-Oct-03 03:32     22 27 38.726814 -01 08 15.97240
 2018-Oct-03 03:33     22 27 38.454434 -01 08 13.06935
 2018-Oct-03 03:34     22 27 38.182083 -01 08 10.16631
 2018-Oct-03 03:35     22 27 37.909762 -01 08 07.26327
 2018-Oct-03 03:36     22 27 37.637470 -01 08 04.36023
 2018-Oct-03 03:37     22 27 37.365208 -01 08 01.45720
 2018-Oct-03 03:38     22 27 37.092976 -01 07 58.55418
 2018-Oct-03 03:39     22 27 36.820775 -01 07 55.65116
 2018-Oct-03 03:40     22 27 36.548605 -01 07 52.74814
 2018-Oct-03 03:41     22 27 36.276466 -01 07 49.84514
 2018-Oct-03 03:42     22 27 36.004359 -01 07 46.94214
 2018-Oct-03 03:43     22 27 35.732284 -01 07 44.03914
 2018-Oct-03 03:44     22 27 35.460242 -01 07 41.13615
 2018-Oct-03 03:45     22 27 35.188232 -01 07 38.23317
 2018-Oct-03 03:46     22 27 34.916255 -01 07 35.33019
 2018-Oct-03 03:47     22 27 34.644311 -01 07 32.42722
 2018-Oct-03 03:48     22 27 34.372401 -01 07 29.52426
 2018-Oct-03 03:49     22 27 34.100526 -01 07 26.62130
 2018-Oct-03 03:50     22 27 33.828684 -01 07 23.71835
 2018-Oct-03 03:51     22 27 33.556877 -01 07 20.81541
 2018-Oct-03 03:52     22 27 33.285105 -01 07 17.91247
 2018-Oct-03 03:53     22 27 33.013369 -01 07 15.00954
 2018-Oct-03 03:54     22 27 32.741668 -01 07 12.10662
 2018-Oct-03 03:55     22 27 32.470003 -01 07 09.20370
 2018-Oct-03 03:56     22 27 32.198375 -01 07 06.30079
 2018-Oct-03 03:57     22 27 31.926783 -01 07 03.39789
 2018-Oct-03 03:58     22 27 31.655228 -01 07 00.49500
 2018-Oct-03 03:59     22 27 31.383710 -01 06 57.59211
 2018-Oct-03 04:00     22 27 31.112230 -01 06 54.68923
 2018-Oct-03 04:01     22 27 30.840788 -01 06 51.78636
 2018-Oct-03 04:02     22 27 30.569385 -01 06 48.88350
 2018-Oct-03 04:03     22 27 30.298020 -01 06 45.98064
 2018-Oct-03 04:04     22 27 30.026693 -01 06 43.07779
 2018-Oct-03 04:05     22 27 29.755407 -01 06 40.17496
 2018-Oct-03 04:06     22 27 29.484159 -01 06 37.27212
 2018-Oct-03 04:07     22 27 29.212952 -01 06 34.36930
 2018-Oct-03 04:08     22 27 28.941785 -01 06 31.46648
 2018-Oct-03 04:09     22 27 28.670658 -01 06 28.56368
 2018-Oct-03 04:10     22 27 28.399572 -01 06 25.66088
 2018-Oct-03 04:11     22 27 28.128527 -01 06 22.75809
 2018-Oct-03 04:12     22 27 27.857524 -01 06 19.85531
 2018-Oct-03 04:13     22 27 27.586563 -01 06 16.95254
 2018-Oct-03 04:14     22 27 27.315644 -01 06 14.04977
 2018-Oct-03 04:15     22 27 27.044767 -01 06 11.14702
 2018-Oct-03 04:16     22 27 26.773933 -01 06 08.24428
 2018-Oct-03 04:17     22 27 26.503142 -01 06 05.34154
 2018-Oct-03 04:18     22 27 26.232394 -01 06 02.43881
 2018-Oct-03 04:19     22 27 25.961690 -01 05 59.53610
 2018-Oct-03 04:20     22 27 25.691030 -01 05 56.63339
 2018-Oct-03 04:21     22 27 25.420415 -01 05 53.73069
 2018-Oct-03 04:22     22 27 25.149844 -01 05 50.82800
 2018-Oct-03 04:23     22 27 24.879318 -01 05 47.92532
 2018-Oct-03 04:24     22 27 24.608837 -01 05 45.02265
 2018-Oct-03 04:25     22 27 24.338402 -01 05 42.12000
 2018-Oct-03 04:26     22 27 24.068012 -01 05 39.21735
 2018-Oct-03 04:27     22 27 23.797669 -01 05 36.31471
 2018-Oct-03 04:28     22 27 23.527373 -01 05 33.41208
 2018-Oct-03 04:29     22 27 23.257123 -01 05 30.50946
 2018-Oct-03 04:30     22 27 22.986920 -01 05 27.60685
 2018-Oct-03 04:31     22 27 22.716764 -01 05 24.70426
 2018-Oct-03 04:32     22 27 22.446657 -01 05 21.80167
 2018-Oct-03 04:33     22 27 22.176597 -01 05 18.89910
 2018-Oct-03 04:34     22 27 21.906585 -01 05 15.99653
 2018-Oct-03 04:35     22 27 21.636622 -01 05 13.09398
 2018-Oct-03 04:36     22 27 21.366708 -01 05 10.19144
 2018-Oct-03 04:37     22 27 21.096844 -01 05 07.28891
 2018-Oct-03 04:38     22 27 20.827028 -01 05 04.38639
 2018-Oct-03 04:39     22 27 20.557263 -01 05 01.48388
 2018-Oct-03 04:40     22 27 20.287547 -01 04 58.58138
 2018-Oct-03 04:41     22 27 20.017882 -01 04 55.67889
 2018-Oct-03 04:42     22 27 19.748268 -01 04 52.77642
 2018-Oct-03 04:43     22 27 19.478704 -01 04 49.87396
 2018-Oct-03 04:44     22 27 19.209192 -01 04 46.97151
 2018-Oct-03 04:45     22 27 18.939731 -01 04 44.06907
 2018-Oct-03 04:46     22 27 18.670322 -01 04 41.16664
 2018-Oct-03 04:47     22 27 18.400966 -01 04 38.26423
 2018-Oct-03 04:48     22 27 18.131661 -01 04 35.36183
 2018-Oct-03 04:49     22 27 17.862410 -01 04 32.45944
 2018-Oct-03 04:50     22 27 17.593211 -01 04 29.55706
 2018-Oct-03 04:51     22 27 17.324066 -01 04 26.65470
 2018-Oct-03 04:52     22 27 17.054974 -01 04 23.75235
 2018-Oct-03 04:53     22 27 16.785936 -01 04 20.85001
 2018-Oct-03 04:54     22 27 16.516952 -01 04 17.94769
 2018-Oct-03 04:55     22 27 16.248023 -01 04 15.04537
 2018-Oct-03 04:56     22 27 15.979148 -01 04 12.14307
 2018-Oct-03 04:57     22 27 15.710328 -01 04 09.24079
 2018-Oct-03 04:58     22 27 15.441564 -01 04 06.33852
 2018-Oct-03 04:59     22 27 15.172854 -01 04 03.43626
 2018-Oct-03 05:00     22 27 14.904201 -01 04 00.53401
 2018-Oct-03 05:01     22 27 14.635604 -01 03 57.63178
